ORBCOMM FM35            
1 25985U 99065F   23272.12230753  .00001481  00000+0  57178-3 0  9991
2 25985  45.0395 175.6527 0001868 129.7388 230.3624 14.34353372244679
ORBCOMM FM33 [-]        
1 25983U 99065D   23272.57634115  .00001679  00000+0  61143-3 0  9994
2 25983  45.0290  89.8202 0009217 153.1317 253.8525 14.36760860245853
ORBCOMM FM36 [-]        
1 25984U 99065E   23272.55283039  .00001548  00000+0  59205-3 0  9999
2 25984  45.0396 171.5752 0004358  23.3439 336.7605 14.34646859244335
ORBCOMM FM34 [-]        
1 25986U 99065G   23272.15547798  .00001600  00000+0  61434-3 0  9998
2 25986  45.0391 175.9645 0003519  63.1542 296.9665 14.34298991244799
ORBCOMM FM38 [-]        
1 33060U 08031A   23272.47567512  .00003133  00000+0  47881-3 0  9997
2 33060  48.4416  48.7968 0006234 236.6504 123.3813 14.76071807822019
ORBCOMM FM41 [-]        
1 33061U 08031B   23272.63569858  .00002891  00000+0  44644-3 0  9995
2 33061  48.4450  54.1636 0005363 226.1104 227.3861 14.75837958821544
ORBCOMM FM29 [-]        
1 33062U 08031C   23272.53931391  .00003074  00000+0  47417-3 0  9995
2 33062  48.4399  62.5913 0007265 222.2517 218.7711 14.75714194821449
ORBCOMM FM39 [-]        
1 33063U 08031D   23272.69035782  .00002668  00000+0  42342-3 0  9992
2 33063  48.4408  80.8571 0008041 200.5166 159.5425 14.74879960821600
