<?xml version="1.0" encoding="UTF-8"?>
<ndm xmlns:xsi="http://www.w3.org/2001/XMLSchema-instance" xsi:noNamespaceSchemaLocation="https://sanaregistry.org/r/ndmxml_unqualified/ndmxml-2.0.0-master-2.0.xsd">
<omm id="CCSDS_OMM_VERS" version="2.0">
<header><CREATION_DATE/><ORIGINATOR/></header><body><segment><metadata><OBJECT_NAME>ORBCOMM FM33 [-]</OBJECT_NAME><OBJECT_ID>1999-065D</OBJECT_ID><CENTER_NAME>EARTH</CENTER_NAME><REF_FRAME>TEME</REF_FRAME><TIME_SYSTEM>UTC</TIME_SYSTEM><MEAN_ELEMENT_THEORY>SGP4</MEAN_ELEMENT_THEORY></metadata><data><meanElements><EPOCH>2023-09-29T13:49:55.875360</EPOCH><MEAN_MOTION>14.36760860</MEAN_MOTION><ECCENTRICITY>.0009217</ECCENTRICITY><INCLINATION>45.0290</INCLINATION><RA_OF_ASC_NODE>89.8202</RA_OF_ASC_NODE><ARG_OF_PERICENTER>153.1317</ARG_OF_PERICENTER><MEAN_ANOMALY>253.8525</MEAN_ANOMALY></meanElements><tleParameters><EPHEMERIS_TYPE>0</EPHEMERIS_TYPE><CLASSIFICATION_TYPE>U</CLASSIFICATION_TYPE><NORAD_CAT_ID>25983</NORAD_CAT_ID><ELEMENT_SET_NO>999</ELEMENT_SET_NO><REV_AT_EPOCH>24585</REV_AT_EPOCH><BSTAR>.61143E-3</BSTAR><MEAN_MOTION_DOT>.1679E-4</MEAN_MOTION_DOT><MEAN_MOTION_DDOT>0</MEAN_MOTION_DDOT></tleParameters></data></segment></body></omm>
<omm id="CCSDS_OMM_VERS" version="2.0">
<header><CREATION_DATE/><ORIGINATOR/></header><body><segment><metadata><OBJECT_NAME>ORBCOMM FM36 [-]</OBJECT_NAME><OBJECT_ID>1999-065E</OBJECT_ID><CENTER_NAME>EARTH</CENTER_NAME><REF_FRAME>TEME</REF_FRAME><TIME_SYSTEM>UTC</TIME_SYSTEM><MEAN_ELEMENT_THEORY>SGP4</MEAN_ELEMENT_THEORY></metadata><data><meanElements><EPOCH>2023-09-29T13:16:04.545696</EPOCH><MEAN_MOTION>14.34646859</MEAN_MOTION><ECCENTRICITY>.0004358</ECCENTRICITY><INCLINATION>45.0396</INCLINATION><RA_OF_ASC_NODE>171.5752</RA_OF_ASC_NODE><ARG_OF_PERICENTER>23.3439</ARG_OF_PERICENTER><MEAN_ANOMALY>336.7605</MEAN_ANOMALY></meanElements><tleParameters><EPHEMERIS_TYPE>0</EPHEMERIS_TYPE><CLASSIFICATION_TYPE>U</CLASSIFICATION_TYPE><NORAD_CAT_ID>25984</NORAD_CAT_ID><ELEMENT_SET_NO>999</ELEMENT_SET_NO><REV_AT_EPOCH>24433</REV_AT_EPOCH><BSTAR>.59205E-3</BSTAR><MEAN_MOTION_DOT>.1548E-4</MEAN_MOTION_DOT><MEAN_MOTION_DDOT>0</MEAN_MOTION_DDOT></tleParameters></data></segment></body></omm>
<omm id="CCSDS_OMM_VERS" version="2.0">
<header><CREATION_DATE/><ORIGINATOR/></header><body><segment><metadata><OBJECT_NAME>ORBCOMM FM35 [+]</OBJECT_NAME><OBJECT_ID>1999-065F</OBJECT_ID><CENTER_NAME>EARTH</CENTER_NAME><REF_FRAME>TEME</REF_FRAME><TIME_SYSTEM>UTC</TIME_SYSTEM><MEAN_ELEMENT_THEORY>SGP4</MEAN_ELEMENT_THEORY></metadata><data><meanElements><EPOCH>2023-09-29T02:56:07.370592</EPOCH><MEAN_MOTION>14.34353372</MEAN_MOTION><ECCENTRICITY>.0001868</ECCENTRICITY><INCLINATION>45.0395</INCLINATION><RA_OF_ASC_NODE>175.6527</RA_OF_ASC_NODE><ARG_OF_PERICENTER>129.7388</ARG_OF_PERICENTER><MEAN_ANOMALY>230.3624</MEAN_ANOMALY></meanElements><tleParameters><EPHEMERIS_TYPE>0</EPHEMERIS_TYPE><CLASSIFICATION_TYPE>U</CLASSIFICATION_TYPE><NORAD_CAT_ID>25985</NORAD_CAT_ID><ELEMENT_SET_NO>999</ELEMENT_SET_NO><REV_AT_EPOCH>24467</REV_AT_EPOCH><BSTAR>.57178E-3</BSTAR><MEAN_MOTION_DOT>.1481E-4</MEAN_MOTION_DOT><MEAN_MOTION_DDOT>0</MEAN_MOTION_DDOT></tleParameters></data></segment></body></omm>
<omm id="CCSDS_OMM_VERS" version="2.0">
<header><CREATION_DATE/><ORIGINATOR/></header><body><segment><metadata><OBJECT_NAME>ORBCOMM FM34 [-]</OBJECT_NAME><OBJECT_ID>1999-065G</OBJECT_ID><CENTER_NAME>EARTH</CENTER_NAME><REF_FRAME>TEME</REF_FRAME><TIME_SYSTEM>UTC</TIME_SYSTEM><MEAN_ELEMENT_THEORY>SGP4</MEAN_ELEMENT_THEORY></metadata><data><meanElements><EPOCH>2023-09-29T03:43:53.297472</EPOCH><MEAN_MOTION>14.34298991</MEAN_MOTION><ECCENTRICITY>.0003519</ECCENTRICITY><INCLINATION>45.0391</INCLINATION><RA_OF_ASC_NODE>175.9645</RA_OF_ASC_NODE><ARG_OF_PERICENTER>63.1542</ARG_OF_PERICENTER><MEAN_ANOMALY>296.9665</MEAN_ANOMALY></meanElements><tleParameters><EPHEMERIS_TYPE>0</EPHEMERIS_TYPE><CLASSIFICATION_TYPE>U</CLASSIFICATION_TYPE><NORAD_CAT_ID>25986</NORAD_CAT_ID><ELEMENT_SET_NO>999</ELEMENT_SET_NO><REV_AT_EPOCH>24479</REV_AT_EPOCH><BSTAR>.61434E-3</BSTAR><MEAN_MOTION_DOT>.16E-4</MEAN_MOTION_DOT><MEAN_MOTION_DDOT>0</MEAN_MOTION_DDOT></tleParameters></data></segment></body></omm>
<omm id="CCSDS_OMM_VERS" version="2.0">
<header><CREATION_DATE/><ORIGINATOR/></header><body><segment><metadata><OBJECT_NAME>ORBCOMM FM38 [-]</OBJECT_NAME><OBJECT_ID>2008-031A</OBJECT_ID><CENTER_NAME>EARTH</CENTER_NAME><REF_FRAME>TEME</REF_FRAME><TIME_SYSTEM>UTC</TIME_SYSTEM><MEAN_ELEMENT_THEORY>SGP4</MEAN_ELEMENT_THEORY></metadata><data><meanElements><EPOCH>2023-09-29T11:24:58.330368</EPOCH><MEAN_MOTION>14.76071807</MEAN_MOTION><ECCENTRICITY>.0006234</ECCENTRICITY><INCLINATION>48.4416</INCLINATION><RA_OF_ASC_NODE>48.7968</RA_OF_ASC_NODE><ARG_OF_PERICENTER>236.6504</ARG_OF_PERICENTER><MEAN_ANOMALY>123.3813</MEAN_ANOMALY></meanElements><tleParameters><EPHEMERIS_TYPE>0</EPHEMERIS_TYPE><CLASSIFICATION_TYPE>U</CLASSIFICATION_TYPE><NORAD_CAT_ID>33060</NORAD_CAT_ID><ELEMENT_SET_NO>999</ELEMENT_SET_NO><REV_AT_EPOCH>82201</REV_AT_EPOCH><BSTAR>.47881E-3</BSTAR><MEAN_MOTION_DOT>.3133E-4</MEAN_MOTION_DOT><MEAN_MOTION_DDOT>0</MEAN_MOTION_DDOT></tleParameters></data></segment></body></omm>
<omm id="CCSDS_OMM_VERS" version="2.0">
<header><CREATION_DATE/><ORIGINATOR/></header><body><segment><metadata><OBJECT_NAME>ORBCOMM FM41 [-]</OBJECT_NAME><OBJECT_ID>2008-031B</OBJECT_ID><CENTER_NAME>EARTH</CENTER_NAME><REF_FRAME>TEME</REF_FRAME><TIME_SYSTEM>UTC</TIME_SYSTEM><MEAN_ELEMENT_THEORY>SGP4</MEAN_ELEMENT_THEORY></metadata><data><meanElements><EPOCH>2023-09-29T15:15:24.357312</EPOCH><MEAN_MOTION>14.75837958</MEAN_MOTION><ECCENTRICITY>.0005363</ECCENTRICITY><INCLINATION>48.4450</INCLINATION><RA_OF_ASC_NODE>54.1636</RA_OF_ASC_NODE><ARG_OF_PERICENTER>226.1104</ARG_OF_PERICENTER><MEAN_ANOMALY>227.3861</MEAN_ANOMALY></meanElements><tleParameters><EPHEMERIS_TYPE>0</EPHEMERIS_TYPE><CLASSIFICATION_TYPE>U</CLASSIFICATION_TYPE><NORAD_CAT_ID>33061</NORAD_CAT_ID><ELEMENT_SET_NO>999</ELEMENT_SET_NO><REV_AT_EPOCH>82154</REV_AT_EPOCH><BSTAR>.44644E-3</BSTAR><MEAN_MOTION_DOT>.2891E-4</MEAN_MOTION_DOT><MEAN_MOTION_DDOT>0</MEAN_MOTION_DDOT></tleParameters></data></segment></body></omm>
<omm id="CCSDS_OMM_VERS" version="2.0">
<header><CREATION_DATE/><ORIGINATOR/></header><body><segment><metadata><OBJECT_NAME>ORBCOMM FM29 [-]</OBJECT_NAME><OBJECT_ID>2008-031C</OBJECT_ID><CENTER_NAME>EARTH</CENTER_NAME><REF_FRAME>TEME</REF_FRAME><TIME_SYSTEM>UTC</TIME_SYSTEM><MEAN_ELEMENT_THEORY>SGP4</MEAN_ELEMENT_THEORY></metadata><data><meanElements><EPOCH>2023-09-29T12:56:36.721824</EPOCH><MEAN_MOTION>14.75714194</MEAN_MOTION><ECCENTRICITY>.0007265</ECCENTRICITY><INCLINATION>48.4399</INCLINATION><RA_OF_ASC_NODE>62.5913</RA_OF_ASC_NODE><ARG_OF_PERICENTER>222.2517</ARG_OF_PERICENTER><MEAN_ANOMALY>218.7711</MEAN_ANOMALY></meanElements><tleParameters><EPHEMERIS_TYPE>0</EPHEMERIS_TYPE><CLASSIFICATION_TYPE>U</CLASSIFICATION_TYPE><NORAD_CAT_ID>33062</NORAD_CAT_ID><ELEMENT_SET_NO>999</ELEMENT_SET_NO><REV_AT_EPOCH>82144</REV_AT_EPOCH><BSTAR>.47417E-3</BSTAR><MEAN_MOTION_DOT>.3074E-4</MEAN_MOTION_DOT><MEAN_MOTION_DDOT>0</MEAN_MOTION_DDOT></tleParameters></data></segment></body></omm>
<omm id="CCSDS_OMM_VERS" version="2.0">
<header><CREATION_DATE/><ORIGINATOR/></header><body><segment><metadata><OBJECT_NAME>ORBCOMM FM39 [-]</OBJECT_NAME><OBJECT_ID>2008-031D</OBJECT_ID><CENTER_NAME>EARTH</CENTER_NAME><REF_FRAME>TEME</REF_FRAME><TIME_SYSTEM>UTC</TIME_SYSTEM><MEAN_ELEMENT_THEORY>SGP4</MEAN_ELEMENT_THEORY></metadata><data><meanElements><EPOCH>2023-09-29T16:34:06.915648</EPOCH><MEAN_MOTION>14.74879960</MEAN_MOTION><ECCENTRICITY>.0008041</ECCENTRICITY><INCLINATION>48.4408</INCLINATION><RA_OF_ASC_NODE>80.8571</RA_OF_ASC_NODE><ARG_OF_PERICENTER>200.5166</ARG_OF_PERICENTER><MEAN_ANOMALY>159.5425</MEAN_ANOMALY></meanElements><tleParameters><EPHEMERIS_TYPE>0</EPHEMERIS_TYPE><CLASSIFICATION_TYPE>U</CLASSIFICATION_TYPE><NORAD_CAT_ID>33063</NORAD_CAT_ID><ELEMENT_SET_NO>999</ELEMENT_SET_NO><REV_AT_EPOCH>82160</REV_AT_EPOCH><BSTAR>.42342E-3</BSTAR><MEAN_MOTION_DOT>.2668E-4</MEAN_MOTION_DOT><MEAN_MOTION_DDOT>0</MEAN_MOTION_DDOT></tleParameters></data></segment></body></omm>

</ndm>
